CYGNUS NG-23            
1 65616U 25208A   26003.21020602  .00015578  00000+0  28954-3 0  9991
2 65616  51.6329  36.1624 0007549 334.7101  25.3517 15.49059586   227
DRAGONFLY               
1 65729U 98067XH  26003.29799683  .00384232  00000+0  18084-2 0  9997
2 65729  51.6232  24.7040 0008751  41.4446 318.7218 15.81463898 16562
1998-067XK              
1 65731U 98067XK  26003.27674479  .00178442  00000+0  13840-2 0  9992
2 65731  51.6286  27.6068 0005343  16.8104 343.3070 15.70717254 16529
RSP-03                  
1 65732U 98067XL  26003.29504944  .00252732  00000+0  15841-2 0  9992
2 65732  51.6255  26.2072 0006443  23.9890 336.1408 15.75467795 16554
GHS-01                  
1 65733U 98067XM  26002.43676103  .00536437  00000+0  18982-2 0  9991
2 65733  51.6261  27.9593 0009648  41.4531 318.7204 15.87073258 16454
YOTSUBA-KULOVER         
1 65941U 98067XN  26003.28736781  .00122515  00000+0  13154-2 0  9999
2 65941  51.6291  31.4319 0003533  46.8072 313.3217 15.62875396 13223
BOTAN                   
1 65942U 98067XP  26003.10618864  .00185038  00000+0  15861-2 0  9998
2 65942  51.6272  30.9665 0004417  35.2336 324.8952 15.68280980 13215
E-KAGAKU-1              
1 65943U 98067XQ  26003.09546414  .00113099  00000+0  12174-2 0  9990
2 65943  51.6298  32.4065 0002179  34.9595 325.1542 15.62853332 13198
HRC MONOBLOCK CAMERA    
1 66052U 98067XR  26003.31006963  .00051455  00000+0  73284-3 0  9994
2 66052  51.6308  33.8309 0001443 302.6258  57.4594 15.55813884 12193
HTV-X1                  
1 66174U 25241A   26003.21020602  .00015578  00000+0  28954-3 0  9998
2 66174  51.6329  36.1624 0007549 334.7101  25.3517 15.49059586   519
SZ-21 MODULE            
1 66515U 25246C   26003.00740601  .00040642  00000+0  42308-3 0  9996
2 66515  41.4755 246.1963 0002323  25.4667 334.6288 15.63793066  7773
SHENZHOU-22             
1 66645U 25272A   26003.10227956  .00032013  00000+0  38473-3 0  9994
2 66645  41.4661 246.9310 0010349 209.1942 150.8319 15.60118747267338
